CTC1_L_00133001-01
1 29066U 25029IV  26037.47802083  .00000000  00000+0  00000-0 0  9990
2 29066  50.0000   0.0000 0000000   0.0000   0.0000 14.15679836    11
CTC1_L_00133001-02
1 29067U 24589YZ  26037.47802083  .00000000  00000+0  00000-0 0  9991
2 29067  50.0000   0.0000 0000000   0.0000  90.0000 14.15679836    11
CTC1_L_00133001-03
1 29068U 22462VO  26037.47802083  .00000000  00000+0  00000-0 0  9990
2 29068  50.0000   0.0000 0000000   0.0000 180.0000 14.15679836    12
CTC1_L_00133001-04
1 29069U 26944CY  26037.47802083  .00000000  00000+0  00000-0 0  9990
2 29069  50.0000   0.0000 0000000   0.0000 270.0000 14.15679836    13
CTC1_L_00133002-01
1 29070U 25720XO  26037.47802083  .00000000  00000+0  00000-0 0  9993
2 29070  50.0000  12.0000 0000000   0.0000  12.0000 14.15679836    12
CTC1_L_00133002-02
1 29071U 25739MW  26037.47802083  .00000000  00000+0  00000-0 0  9994
2 29071  50.0000  12.0000 0000000   0.0000 102.0000 14.15679836    13
CTC1_L_00133002-03
1 29072U 24837OY  26037.47802083  .00000000  00000+0  00000-0 0  9993
2 29072  50.0000  12.0000 0000000   0.0000 192.0000 14.15679836    13
CTC1_L_00133002-04
1 29073U 25261YV  26037.47802083  .00000000  00000+0  00000-0 0  9996
2 29073  50.0000  12.0000 0000000   0.0000 282.0000 14.15679836    14
CTC1_L_00133003-01
1 29074U 25670EI  26037.47802083  .00000000  00000+0  00000-0 0  9991
2 29074  50.0000  24.0000 0000000   0.0000  24.0000 14.15679836    12
CTC1_L_00133003-02
1 29075U 24118AT  26037.47802083  .00000000  00000+0  00000-0 0  9998
2 29075  50.0000  24.0000 0000000   0.0000 114.0000 14.15679836    13
CTC1_L_00133003-03
1 29076U 23899DC  26037.47802083  .00000000  00000+0  00000-0 0  9994
2 29076  50.0000  24.0000 0000000   0.0000 204.0000 14.15679836    14
CTC1_L_00133003-04
1 29077U 23033KX  26037.47802083  .00000000  00000+0  00000-0 0  9995
2 29077  50.0000  24.0000 0000000   0.0000 294.0000 14.15679836    14
CTC1_L_00133004-01
1 29078U 22947IR  26037.47802083  .00000000  00000+0  00000-0 0  9999
2 29078  50.0000  36.0000 0000000   0.0000  36.0000 14.15679836    12
CTC1_L_00133004-02
1 29079U 23897MA  26037.47802083  .00000000  00000+0  00000-0 0  9995
2 29079  50.0000  36.0000 0000000   0.0000 126.0000 14.15679836    13
CTC1_L_00133004-03
1 29080U 26830UP  26037.47802083  .00000000  00000+0  00000-0 0  9997
2 29080  50.0000  36.0000 0000000   0.0000 216.0000 14.15679836    15
CTC1_L_00133004-04
1 29081U 22882LX  26037.47802083  .00000000  00000+0  00000-0 0  9991
2 29081  50.0000  36.0000 0000000   0.0000 306.0000 14.15679836    16
CTC1_L_00133005-01
1 29082U 24757PD  26037.47802083  .00000000  00000+0  00000-0 0  9995
2 29082  50.0000  48.0000 0000000   0.0000  48.0000 14.15679836    13
CTC1_L_00133005-02
1 29083U 26485BD  26037.47802083  .00000000  00000+0  00000-0 0  9996
2 29083  50.0000  48.0000 0000000   0.0000 138.0000 14.15679836    14
CTC1_L_00133005-03
1 29084U 22246BI  26037.47802083  .00000000  00000+0  00000-0 0  9998
2 29084  50.0000  48.0000 0000000   0.0000 228.0000 14.15679836    15
CTC1_L_00133005-04
1 29085U 24621PF  26037.47802083  .00000000  00000+0  00000-0 0  9998
2 29085  50.0000  48.0000 0000000   0.0000 318.0000 14.15679836    16
CTC1_L_00133006-01
1 29086U 25781YL  26037.47802083  .00000000  00000+0  00000-0 0  9997
2 29086  50.0000  60.0000 0000000   0.0000  60.0000 14.15679836    15
CTC1_L_00133006-02
1 29087U 22318FV  26037.47802083  .00000000  00000+0  00000-0 0  9991
2 29087  50.0000  60.0000 0000000   0.0000 150.0000 14.15679836    16
CTC1_L_00133006-03
1 29088U 25440PR  26037.47802083  .00000000  00000+0  00000-0 0  9991
2 29088  50.0000  60.0000 0000000   0.0000 240.0000 14.15679836    17
CTC1_L_00133006-04
1 29089U 23796SM  26037.47802083  .00000000  00000+0  00000-0 0  9994
2 29089  50.0000  60.0000 0000000   0.0000 330.0000 14.15679836    18
CTC1_L_00133007-01
1 29090U 25292WZ  26037.47802083  .00000000  00000+0  00000-0 0  9999
2 29090  50.0000  72.0000 0000000   0.0000  72.0000 14.15679836    16
CTC1_L_00133007-02
1 29091U 22614BV  26037.47802083  .00000000  00000+0  00000-0 0  9995
2 29091  50.0000  72.0000 0000000   0.0000 162.0000 14.15679836    17
CTC1_L_00133007-03
1 29092U 24443PV  26037.47802083  .00000000  00000+0  00000-0 0  9998
2 29092  50.0000  72.0000 0000000   0.0000 252.0000 14.15679836    18
CTC1_L_00133007-04
1 29093U 23548OU  26037.47802083  .00000000  00000+0  00000-0 0  9994
2 29093  50.0000  72.0000 0000000   0.0000 342.0000 14.15679836    19
CTC1_L_00133008-01
1 29094U 26407HY  26037.47802083  .00000000  00000+0  00000-0 0  9992
2 29094  50.0000  84.0000 0000000   0.0000  84.0000 14.15679836    16
CTC1_L_00133008-02
1 29095U 25855CX  26037.47802083  .00000000  00000+0  00000-0 0  9999
2 29095  50.0000  84.0000 0000000   0.0000 174.0000 14.15679836    17
CTC1_L_00133008-03
1 29096U 26728WL  26037.47802083  .00000000  00000+0  00000-0 0  9990
2 29096  50.0000  84.0000 0000000   0.0000 264.0000 14.15679836    18
CTC1_L_00133008-04
1 29097U 23053GF  26037.47802083  .00000000  00000+0  00000-0 0  9999
2 29097  50.0000  84.0000 0000000   0.0000 354.0000 14.15679836    19
CTC1_L_00133009-01
1 29098U 25580NY  26037.47802083  .00000000  00000+0  00000-0 0  9997
2 29098  50.0000  96.0000 0000000   0.0000  96.0000 14.15679836    16
CTC1_L_00133009-02
1 29099U 25931UP  26037.47802083  .00000000  00000+0  00000-0 0  9998
2 29099  50.0000  96.0000 0000000   0.0000 186.0000 14.15679836    17
CTC1_L_00133009-03
1 29100U 24340EU  26037.47802083  .00000000  00000+0  00000-0 0  9994
2 29100  50.0000  96.0000 0000000   0.0000 276.0000 14.15679836    10
CTC1_L_00133009-04
1 29101U 26564FL  26037.47802083  .00000000  00000+0  00000-0 0  9995
2 29101  50.0000  96.0000 0000000   0.0000   6.0000 14.15679836    12
CTC1_L_00133010-01
1 29102U 22356WK  26037.47802083  .00000000  00000+0  00000-0 0  9991
2 29102  50.0000 108.0000 0000000   0.0000 108.0000 14.15679836    10
CTC1_L_00133010-02
1 29103U 23352ON  26037.47802083  .00000000  00000+0  00000-0 0  9999
2 29103  50.0000 108.0000 0000000   0.0000 198.0000 14.15679836    10
CTC1_L_00133010-03
1 29104U 22329KB  26037.47802083  .00000000  00000+0  00000-0 0  9993
2 29104  50.0000 108.0000 0000000   0.0000 288.0000 14.15679836    11
CTC1_L_00133010-04
1 29105U 22792TX  26037.47802083  .00000000  00000+0  00000-0 0  9998
2 29105  50.0000 108.0000 0000000   0.0000  18.0000 14.15679836    13
CTC1_L_00133011-01
1 29106U 24574DB  26037.47802083  .00000000  00000+0  00000-0 0  9999
2 29106  50.0000 120.0000 0000000   0.0000 120.0000 14.15679836    12
CTC1_L_00133011-02
1 29107U 25193PD  26037.47802083  .00000000  00000+0  00000-0 0  9998
2 29107  50.0000 120.0000 0000000   0.0000 210.0000 14.15679836    13
CTC1_L_00133011-03
1 29108U 22686LN  26037.47802083  .00000000  00000+0  00000-0 0  9993
2 29108  50.0000 120.0000 0000000   0.0000 300.0000 14.15679836    14
CTC1_L_00133011-04
1 29109U 25953VQ  26037.47802083  .00000000  00000+0  00000-0 0  9994
2 29109  50.0000 120.0000 0000000   0.0000  30.0000 14.15679836    15
CTC1_L_00133012-01
1 29110U 24440MD  26037.47802083  .00000000  00000+0  00000-0 0  9996
2 29110  50.0000 132.0000 0000000   0.0000 132.0000 14.15679836    13
CTC1_L_00133012-02
1 29111U 24272XA  26037.47802083  .00000000  00000+0  00000-0 0  9990
2 29111  50.0000 132.0000 0000000   0.0000 222.0000 14.15679836    14
CTC1_L_00133012-03
1 29112U 23902QV  26037.47802083  .00000000  00000+0  00000-0 0  9990
2 29112  50.0000 132.0000 0000000   0.0000 312.0000 14.15679836    15
CTC1_L_00133012-04
1 29113U 23969VI  26037.47802083  .00000000  00000+0  00000-0 0  9994
2 29113  50.0000 132.0000 0000000   0.0000  42.0000 14.15679836    16
CTC1_L_00133013-01
1 29114U 22704MQ  26037.47802083  .00000000  00000+0  00000-0 0  9991
2 29114  50.0000 144.0000 0000000   0.0000 144.0000 14.15679836    13
CTC1_L_00133013-02
1 29115U 25822XA  26037.47802083  .00000000  00000+0  00000-0 0  9996
2 29115  50.0000 144.0000 0000000   0.0000 234.0000 14.15679836    14
CTC1_L_00133013-03
1 29116U 22005QE  26037.47802083  .00000000  00000+0  00000-0 0  9997
2 29116  50.0000 144.0000 0000000   0.0000 324.0000 14.15679836    15
CTC1_L_00133013-04
1 29117U 22640SK  26037.47802083  .00000000  00000+0  00000-0 0  9993
2 29117  50.0000 144.0000 0000000   0.0000  54.0000 14.15679836    16
CTC1_L_00133014-01
1 29118U 24784RI  26037.47802083  .00000000  00000+0  00000-0 0  9995
2 29118  50.0000 156.0000 0000000   0.0000 156.0000 14.15679836    13
CTC1_L_00133014-02
1 29119U 26226MB  26037.47802083  .00000000  00000+0  00000-0 0  9999
2 29119  50.0000 156.0000 0000000   0.0000 246.0000 14.15679836    14
CTC1_L_00133014-03
1 29120U 24161BQ  26037.47802083  .00000000  00000+0  00000-0 0  9997
2 29120  50.0000 156.0000 0000000   0.0000 336.0000 14.15679836    16
CTC1_L_00133014-04
1 29121U 26977XI  26037.47802083  .00000000  00000+0  00000-0 0  9995
2 29121  50.0000 156.0000 0000000   0.0000  66.0000 14.15679836    17
CTC1_L_00133015-01
1 29122U 24546UD  26037.47802083  .00000000  00000+0  00000-0 0  9996
2 29122  50.0000 168.0000 0000000   0.0000 168.0000 14.15679836    14
CTC1_L_00133015-02
1 29123U 25199FO  26037.47802083  .00000000  00000+0  00000-0 0  9992
2 29123  50.0000 168.0000 0000000   0.0000 258.0000 14.15679836    15
CTC1_L_00133015-03
1 29124U 22600AV  26037.47802083  .00000000  00000+0  00000-0 0  9997
2 29124  50.0000 168.0000 0000000   0.0000 348.0000 14.15679836    16
CTC1_L_00133015-04
1 29125U 24386EZ  26037.47802083  .00000000  00000+0  00000-0 0  9991
2 29125  50.0000 168.0000 0000000   0.0000  78.0000 14.15679836    17
CTC1_L_00133016-01
1 29126U 24152LH  26037.47802083  .00000000  00000+0  00000-0 0  9993
2 29126  50.0000 180.0000 0000000   0.0000 180.0000 14.15679836    16
CTC1_L_00133016-02
1 29127U 26314FE  26037.47802083  .00000000  00000+0  00000-0 0  9996
2 29127  50.0000 180.0000 0000000   0.0000 270.0000 14.15679836    17
